CSS (TIANHE)            
1 48274U 21035A   23192.75623768  .00009870  00000+0  12365-3 0  9990
2 48274  41.4752   6.6544 0009364 263.0469  96.9305 15.59727652125679
